OKEAN-3                 
1 21397U 91039A   25319.80333949  .00004708  00000+0  33943-3 0  9996
2 21397  82.5158  87.1114 0014315   4.1118 356.0223 15.03863007847917
COSMOS 2151             
1 21422U 91042A   25319.79959046  .00003535  00000+0  28499-3 0  9996
2 21422  82.4985 193.4597 0014178  83.8494 276.4345 14.99554048846125
SL-14 R/B               
1 21423U 91042B   25319.49955292  .00000853  00000+0  10529-3 0  9998
2 21423  82.4918 327.2713 0015524 255.0666 104.8829 14.81703261836167
ERS-1                   
1 21574U 91050A   25319.48672488  .00000695  00000+0  23722-3 0  9999
2 21574  98.7922 329.8581 0032001 179.2228 180.9014 14.39334839799309
ARIANE 40 R/B           
1 21610U 91050F   25319.60117492  .00000828  00000+0  26095-3 0  9997
2 21610  98.2207  11.0064 0004176  69.9809 290.1831 14.42780935802547
INTERCOSMOS 25          
1 21819U 91086A   25319.55494071  .00002452  00000+0  48057-3 0  9999
2 21819  82.6084  19.0083 1488198   3.0051 357.8825 12.11609824482860
SL-8 R/B                
1 21876U 92008B   25319.86914242  .00000169  00000+0  15805-3 0  9996
2 21876  82.9281 352.4342 0036152  92.7179  80.6889 13.75950730693761
SL-8 R/B                
1 21938U 92020B   25319.78312682  .00000110  00000+0  99011-4 0  9998
2 21938  82.9312 238.3326 0027634 255.5989 173.5559 13.75522298685471
USA 81                  
1 21949U 92023A   25319.64889052  .00000370  00000+0  12968-3 0  9991
2 21949  85.0106 197.1970 0002562  73.5277 286.6197 14.32313330 78464
COSMOS 2219             
1 22219U 92076A   25319.84370466  .00000074  00000+0  63700-4 0  9998
2 22219  71.0612 256.0528 0017887   5.9637 354.1695 14.14067479702289
SL-16 R/B               
1 22220U 92076B   25319.76573685 -.00000098  00000+0 -24693-4 0  9995
2 22220  71.0005  68.3492 0015282 269.2266 243.9192 14.16835870705696
COSMOS 2221             
1 22236U 92080A   25319.65612807  .00003201  00000+0  28553-3 0  9990
2 22236  82.5072  28.2420 0013852 210.3562 149.6859 14.95616475763744
