CCSDS_OMM_VERS = 2.0
CREATION_DATE  = 
ORIGINATOR     = 

OBJECT_NAME    = OKEAN-3
OBJECT_ID      = 1991-039A
CENTER_NAME    = EARTH
REF_FRAME      = TEME
TIME_SYSTEM    = UTC
MEAN_ELEMENT_THEORY = SGP/SGP4

EPOCH          = 2025-11-15T19:16:48.531936
MEAN_MOTION    = 15.03863007
ECCENTRICITY   = .0014315
INCLINATION    = 82.5158
RA_OF_ASC_NODE = 87.1114
ARG_OF_PERICENTER = 4.1118
MEAN_ANOMALY   = 356.0223

EPHEMERIS_TYPE = 0
CLASSIFICATION_TYPE = U
NORAD_CAT_ID   = 21397
ELEMENT_SET_NO = 999
REV_AT_EPOCH   = 84791
BSTAR          = .33943E-3
MEAN_MOTION_DOT = .4708E-4
MEAN_MOTION_DDOT = 0

CCSDS_OMM_VERS = 2.0
CREATION_DATE  = 
ORIGINATOR     = 

OBJECT_NAME    = COSMOS 2151
OBJECT_ID      = 1991-042A
CENTER_NAME    = EARTH
REF_FRAME      = TEME
TIME_SYSTEM    = UTC
MEAN_ELEMENT_THEORY = SGP/SGP4

EPOCH          = 2025-11-15T19:11:24.615744
MEAN_MOTION    = 14.99554048
ECCENTRICITY   = .0014178
INCLINATION    = 82.4985
RA_OF_ASC_NODE = 193.4597
ARG_OF_PERICENTER = 83.8494
MEAN_ANOMALY   = 276.4345

EPHEMERIS_TYPE = 0
CLASSIFICATION_TYPE = U
NORAD_CAT_ID   = 21422
ELEMENT_SET_NO = 999
REV_AT_EPOCH   = 84612
BSTAR          = .28499E-3
MEAN_MOTION_DOT = .3535E-4
MEAN_MOTION_DDOT = 0

CCSDS_OMM_VERS = 2.0
CREATION_DATE  = 
ORIGINATOR     = 

OBJECT_NAME    = SL-14 R/B
OBJECT_ID      = 1991-042B
CENTER_NAME    = EARTH
REF_FRAME      = TEME
TIME_SYSTEM    = UTC
MEAN_ELEMENT_THEORY = SGP/SGP4

EPOCH          = 2025-11-15T11:59:21.372288
MEAN_MOTION    = 14.81703261
ECCENTRICITY   = .0015524
INCLINATION    = 82.4918
RA_OF_ASC_NODE = 327.2713
ARG_OF_PERICENTER = 255.0666
MEAN_ANOMALY   = 104.8829

EPHEMERIS_TYPE = 0
CLASSIFICATION_TYPE = U
NORAD_CAT_ID   = 21423
ELEMENT_SET_NO = 999
REV_AT_EPOCH   = 83616
BSTAR          = .10529E-3
MEAN_MOTION_DOT = .853E-5
MEAN_MOTION_DDOT = 0

CCSDS_OMM_VERS = 2.0
CREATION_DATE  = 
ORIGINATOR     = 

OBJECT_NAME    = ERS-1
OBJECT_ID      = 1991-050A
CENTER_NAME    = EARTH
REF_FRAME      = TEME
TIME_SYSTEM    = UTC
MEAN_ELEMENT_THEORY = SGP/SGP4

EPOCH          = 2025-11-15T11:40:53.029632
MEAN_MOTION    = 14.39334839
ECCENTRICITY   = .0032001
INCLINATION    = 98.7922
RA_OF_ASC_NODE = 329.8581
ARG_OF_PERICENTER = 179.2228
MEAN_ANOMALY   = 180.9014

EPHEMERIS_TYPE = 0
CLASSIFICATION_TYPE = U
NORAD_CAT_ID   = 21574
ELEMENT_SET_NO = 999
REV_AT_EPOCH   = 79930
BSTAR          = .23722E-3
MEAN_MOTION_DOT = .695E-5
MEAN_MOTION_DDOT = 0

CCSDS_OMM_VERS = 2.0
CREATION_DATE  = 
ORIGINATOR     = 

OBJECT_NAME    = ARIANE 40 R/B
OBJECT_ID      = 1991-050F
CENTER_NAME    = EARTH
REF_FRAME      = TEME
TIME_SYSTEM    = UTC
MEAN_ELEMENT_THEORY = SGP/SGP4

EPOCH          = 2025-11-15T14:25:41.513088
MEAN_MOTION    = 14.42780935
ECCENTRICITY   = .0004176
INCLINATION    = 98.2207
RA_OF_ASC_NODE = 11.0064
ARG_OF_PERICENTER = 69.9809
MEAN_ANOMALY   = 290.1831

EPHEMERIS_TYPE = 0
CLASSIFICATION_TYPE = U
NORAD_CAT_ID   = 21610
ELEMENT_SET_NO = 999
REV_AT_EPOCH   = 80254
BSTAR          = .26095E-3
MEAN_MOTION_DOT = .828E-5
MEAN_MOTION_DDOT = 0

CCSDS_OMM_VERS = 2.0
CREATION_DATE  = 
ORIGINATOR     = 

OBJECT_NAME    = INTERCOSMOS 25
OBJECT_ID      = 1991-086A
CENTER_NAME    = EARTH
REF_FRAME      = TEME
TIME_SYSTEM    = UTC
MEAN_ELEMENT_THEORY = SGP/SGP4

EPOCH          = 2025-11-15T13:19:06.877344
MEAN_MOTION    = 12.11609824
ECCENTRICITY   = .1488198
INCLINATION    = 82.6084
RA_OF_ASC_NODE = 19.0083
ARG_OF_PERICENTER = 3.0051
MEAN_ANOMALY   = 357.8825

EPHEMERIS_TYPE = 0
CLASSIFICATION_TYPE = U
NORAD_CAT_ID   = 21819
ELEMENT_SET_NO = 999
REV_AT_EPOCH   = 48286
BSTAR          = .48057E-3
MEAN_MOTION_DOT = .2452E-4
MEAN_MOTION_DDOT = 0

CCSDS_OMM_VERS = 2.0
CREATION_DATE  = 
ORIGINATOR     = 

OBJECT_NAME    = SL-8 R/B
OBJECT_ID      = 1992-008B
CENTER_NAME    = EARTH
REF_FRAME      = TEME
TIME_SYSTEM    = UTC
MEAN_ELEMENT_THEORY = SGP/SGP4

EPOCH          = 2025-11-15T20:51:33.905088
MEAN_MOTION    = 13.75950730
ECCENTRICITY   = .0036152
INCLINATION    = 82.9281
RA_OF_ASC_NODE = 352.4342
ARG_OF_PERICENTER = 92.7179
MEAN_ANOMALY   = 80.6889

EPHEMERIS_TYPE = 0
CLASSIFICATION_TYPE = U
NORAD_CAT_ID   = 21876
ELEMENT_SET_NO = 999
REV_AT_EPOCH   = 69376
BSTAR          = .15805E-3
MEAN_MOTION_DOT = .169E-5
MEAN_MOTION_DDOT = 0

CCSDS_OMM_VERS = 2.0
CREATION_DATE  = 
ORIGINATOR     = 

OBJECT_NAME    = SL-8 R/B
OBJECT_ID      = 1992-020B
CENTER_NAME    = EARTH
REF_FRAME      = TEME
TIME_SYSTEM    = UTC
MEAN_ELEMENT_THEORY = SGP/SGP4

EPOCH          = 2025-11-15T18:47:42.157248
MEAN_MOTION    = 13.75522298
ECCENTRICITY   = .0027634
INCLINATION    = 82.9312
RA_OF_ASC_NODE = 238.3326
ARG_OF_PERICENTER = 255.5989
MEAN_ANOMALY   = 173.5559

EPHEMERIS_TYPE = 0
CLASSIFICATION_TYPE = U
NORAD_CAT_ID   = 21938
ELEMENT_SET_NO = 999
REV_AT_EPOCH   = 68547
BSTAR          = .99011E-4
MEAN_MOTION_DOT = .11E-5
MEAN_MOTION_DDOT = 0

CCSDS_OMM_VERS = 2.0
CREATION_DATE  = 
ORIGINATOR     = 

OBJECT_NAME    = USA 81
OBJECT_ID      = 1992-023A
CENTER_NAME    = EARTH
REF_FRAME      = TEME
TIME_SYSTEM    = UTC
MEAN_ELEMENT_THEORY = SGP/SGP4

EPOCH          = 2025-11-15T15:34:24.140928
MEAN_MOTION    = 14.32313330
ECCENTRICITY   = .0002562
INCLINATION    = 85.0106
RA_OF_ASC_NODE = 197.1970
ARG_OF_PERICENTER = 73.5277
MEAN_ANOMALY   = 286.6197

EPHEMERIS_TYPE = 0
CLASSIFICATION_TYPE = U
NORAD_CAT_ID   = 21949
ELEMENT_SET_NO = 999
REV_AT_EPOCH   = 7846
BSTAR          = .12968E-3
MEAN_MOTION_DOT = .37E-5
MEAN_MOTION_DDOT = 0

CCSDS_OMM_VERS = 2.0
CREATION_DATE  = 
ORIGINATOR     = 

OBJECT_NAME    = COSMOS 2219
OBJECT_ID      = 1992-076A
CENTER_NAME    = EARTH
REF_FRAME      = TEME
TIME_SYSTEM    = UTC
MEAN_ELEMENT_THEORY = SGP/SGP4

EPOCH          = 2025-11-15T20:14:56.082624
MEAN_MOTION    = 14.14067479
ECCENTRICITY   = .0017887
INCLINATION    = 71.0612
RA_OF_ASC_NODE = 256.0528
ARG_OF_PERICENTER = 5.9637
MEAN_ANOMALY   = 354.1695

EPHEMERIS_TYPE = 0
CLASSIFICATION_TYPE = U
NORAD_CAT_ID   = 22219
ELEMENT_SET_NO = 999
REV_AT_EPOCH   = 70228
BSTAR          = .637E-4
MEAN_MOTION_DOT = .74E-6
MEAN_MOTION_DDOT = 0

CCSDS_OMM_VERS = 2.0
CREATION_DATE  = 
ORIGINATOR     = 

OBJECT_NAME    = SL-16 R/B
OBJECT_ID      = 1992-076B
CENTER_NAME    = EARTH
REF_FRAME      = TEME
TIME_SYSTEM    = UTC
MEAN_ELEMENT_THEORY = SGP/SGP4

EPOCH          = 2025-11-15T18:22:39.663840
MEAN_MOTION    = 14.16835870
ECCENTRICITY   = .0015282
INCLINATION    = 71.0005
RA_OF_ASC_NODE = 68.3492
ARG_OF_PERICENTER = 269.2266
MEAN_ANOMALY   = 243.9192

EPHEMERIS_TYPE = 0
CLASSIFICATION_TYPE = U
NORAD_CAT_ID   = 22220
ELEMENT_SET_NO = 999
REV_AT_EPOCH   = 70569
BSTAR          = -.24693E-4
MEAN_MOTION_DOT = -.98E-6
MEAN_MOTION_DDOT = 0

CCSDS_OMM_VERS = 2.0
CREATION_DATE  = 
ORIGINATOR     = 

OBJECT_NAME    = COSMOS 2221
OBJECT_ID      = 1992-080A
CENTER_NAME    = EARTH
REF_FRAME      = TEME
TIME_SYSTEM    = UTC
MEAN_ELEMENT_THEORY = SGP/SGP4

EPOCH          = 2025-11-15T15:44:49.465248
MEAN_MOTION    = 14.95616475
ECCENTRICITY   = .0013852
INCLINATION    = 82.5072
RA_OF_ASC_NODE = 28.2420
ARG_OF_PERICENTER = 210.3562
MEAN_ANOMALY   = 149.6859

EPHEMERIS_TYPE = 0
CLASSIFICATION_TYPE = U
NORAD_CAT_ID   = 22236
ELEMENT_SET_NO = 999
REV_AT_EPOCH   = 76374
BSTAR          = .28553E-3
MEAN_MOTION_DOT = .3201E-4
MEAN_MOTION_DDOT = 0

